[{"OBJECT_NAME":"HBTSS-SV1","OBJECT_ID":"2024-028F","EPOCH":"2026-03-09T23:05:25.846944","MEAN_MOTION":14.81553365,"ECCENTRICITY":0.00119303,"INCLINATION":39.9894,"RA_OF_ASC_NODE":316.1636,"ARG_OF_PERICENTER":238.589,"MEAN_ANOMALY":121.3729,"EPHEMERIS_TYPE":0,"CLASSIFICATION_TYPE":"U","NORAD_CAT_ID":58960,"ELEMENT_SET_NO":999,"REV_AT_EPOCH":9236,"BSTAR":0.00047571396,"MEAN_MOTION_DOT":3.673e-5,"MEAN_MOTION_DDOT":0},{"OBJECT_NAME":"KUIPER-00030","OBJECT_ID":"2025-088V","EPOCH":"2026-03-09T12:13:07.778784","MEAN_MOTION":14.79975354,"ECCENTRICITY":0.00108768,"INCLINATION":51.9,"RA_OF_ASC_NODE":111.3437,"ARG_OF_PERICENTER":69.9838,"MEAN_ANOMALY":290.2294,"EPHEMERIS_TYPE":0,"CLASSIFICATION_TYPE":"U","NORAD_CAT_ID":63743,"ELEMENT_SET_NO":999,"REV_AT_EPOCH":4760,"BSTAR":0.00066192233,"MEAN_MOTION_DOT":4.835e-5,"MEAN_MOTION_DDOT":0}]
